stk.v.4.3 

BEGIN Ephemeris 
 
NumberOfEphemerisPoints		146 
ScenarioEpoch	    3 Sep 2020 20:34:57.164458037 
InterpolationMethod		Lagrange 
InterpolationOrder		5 
CentralBody				Earth 
CoordinateSystem			TEME 
CoordinateSystemEpoch	  3 Sep 2020 20:34:57.164458037 
DistanceUnit			Kilometers 
 
EphemerisTimePosVel 
 
       0.00000000   -6730.99421320   -2394.27403343       0.04255069  0.165522065 -0.438901490  7.455930997
 END Ephemeris 
